YAOGAN-36 04C           
1 54750U 22171E   26068.78871400  .00016196  00000+0  54592-3 0  9991
2 54750  34.9797  96.6578 0006685 275.3761  84.6192 15.29852307180246
STARLINK-35226          
1 65492U 25198A   26068.81665882  .00016855  00000+0  57996-3 0  9990
2 65492  53.1595 270.1174 0001028  77.2929 282.8187 15.30197756 28645
